{
    "links": {
        "self": "http://www.neowsapp.com/rest/v1/neo/3627055?api_key=iIulBulltgU6a56xZRHN4H3l9WmuAYTsLGpBGhQ2"
    },
    "id": "3627055",
    "neo_reference_id": "3627055",
    "name": "(2013 CV129)",
    "designation": "2013 CV129",
    "nasa_jpl_url": "http://ssd.jpl.nasa.gov/sbdb.cgi?sstr=3627055",
    "absolute_magnitude_h": 24.6,
    "estimated_diameter": {
        "kilometers": {
            "estimated_diameter_min": 0.0319561887,
            "estimated_diameter_max": 0.0714562102
        },
        "meters": {
            "estimated_diameter_min": 31.9561886721,
            "estimated_diameter_max": 71.4562101727
        },
        "miles": {
            "estimated_diameter_min": 0.0198566489,
            "estimated_diameter_max": 0.0444008168
        },
        "feet": {
            "estimated_diameter_min": 104.8431420431,
            "estimated_diameter_max": 234.436392583
        }
    },
    "is_potentially_hazardous_asteroid": false,
    "close_approach_data": [
        {
            "close_approach_date": "2013-01-27",
            "close_approach_date_full": "2013-Jan-27 10:39",
            "epoch_date_close_approach": 1359283140000,
            "relative_velocity": {
                "kilometers_per_second": "3.7399129131",
                "kilometers_per_hour": "13463.6864872608",
                "miles_per_hour": "8365.811195376"
            },
            "miss_distance": {
                "astronomical": "0.1055204725",
                "lunar": "41.0474638025",
                "kilometers": "15785637.927393575",
                "miles": "9808740.570738335"
            },
            "orbiting_body": "Earth"
        }
    ],
    "orbital_data": {
        "orbit_id": "8",
        "orbit_determination_date": "2017-04-06 08:46:45",
        "first_observation_date": "2013-02-14",
        "last_observation_date": "2013-03-03",
        "data_arc_in_days": 17,
        "observations_used": 22,
        "orbit_uncertainty": "8",
        "minimum_orbit_intersection": ".100639",
        "jupiter_tisserand_invariant": "4.055",
        "epoch_osculation": "2456340.5",
        "eccentricity": ".3797167200510754",
        "semi_major_axis": "1.742487695833428",
        "inclination": "3.009343130637914",
        "ascending_node_longitude": "342.4375795340115",
        "orbital_period": "840.1426011138874",
        "perihelion_distance": "1.080835983242203",
        "perihelion_argument": "143.5773477012818",
        "aphelion_distance": "2.404139408424653",
        "perihelion_time": "2456316.911771696356",
        "mean_anomaly": "10.10752481549346",
        "mean_motion": ".4284986852502191",
        "equinox": "J2000",
        "orbit_class": {
            "orbit_class_type": "AMO",
            "orbit_class_description": "Near-Earth asteroid orbits similar to that of 1221 Amor",
            "orbit_class_range": "1.017 AU < q (perihelion) < 1.3 AU"
        }
    },
    "is_sentry_object": false
}